[{"OBJECT_NAME":"STARLINK-31704","OBJECT_ID":"2024-076Y","EPOCH":"2026-03-09T22:00:01.999584","MEAN_MOTION":15.30892355,"ECCENTRICITY":0.00079744,"INCLINATION":42.9978,"RA_OF_ASC_NODE":323.2923,"ARG_OF_PERICENTER":240.5046,"MEAN_ANOMALY":200.4144,"EPHEMERIS_TYPE":0,"CLASSIFICATION_TYPE":"U","NORAD_CAT_ID":59586,"ELEMENT_SET_NO":999,"REV_AT_EPOCH":581,"BSTAR":0.0024766131,"MEAN_MOTION_DOT":0.00076042,"MEAN_MOTION_DDOT":0},{"OBJECT_NAME":"STARLINK-35601","OBJECT_ID":"2025-240D","EPOCH":"2026-03-09T23:29:28.416768","MEAN_MOTION":15.30207714,"ECCENTRICITY":0.00015155,"INCLINATION":53.1609,"RA_OF_ASC_NODE":61.404,"ARG_OF_PERICENTER":96.0498,"MEAN_ANOMALY":264.0676,"EPHEMERIS_TYPE":0,"CLASSIFICATION_TYPE":"U","NORAD_CAT_ID":66149,"ELEMENT_SET_NO":999,"REV_AT_EPOCH":2203,"BSTAR":0.00088575691,"MEAN_MOTION_DOT":0.00025972,"MEAN_MOTION_DDOT":0}]
